[{"OBJECT_NAME":"STARLINK-4705","OBJECT_ID":"2022-107Z","EPOCH":"2026-03-09T17:20:21.628320","MEAN_MOTION":15.08835563,"ECCENTRICITY":0.00020718,"INCLINATION":53.2164,"RA_OF_ASC_NODE":253.6179,"ARG_OF_PERICENTER":131.7665,"MEAN_ANOMALY":228.3505,"EPHEMERIS_TYPE":0,"CLASSIFICATION_TYPE":"U","NORAD_CAT_ID":53723,"ELEMENT_SET_NO":999,"REV_AT_EPOCH":19456,"BSTAR":0.00029867275,"MEAN_MOTION_DOT":4.468e-5,"MEAN_MOTION_DDOT":0},{"OBJECT_NAME":"OBJECT H","OBJECT_ID":"2017-042H","EPOCH":"2026-03-09T21:54:40.929408","MEAN_MOTION":15.07257911,"ECCENTRICITY":0.00117342,"INCLINATION":97.4058,"RA_OF_ASC_NODE":233.05,"ARG_OF_PERICENTER":93.954,"MEAN_ANOMALY":266.303,"EPHEMERIS_TYPE":0,"CLASSIFICATION_TYPE":"U","NORAD_CAT_ID":42832,"ELEMENT_SET_NO":999,"REV_AT_EPOCH":47198,"BSTAR":0.00041037265,"MEAN_MOTION_DOT":6.138e-5,"MEAN_MOTION_DDOT":0}]
